[{"OBJECT_NAME":"STARLINK-30535","OBJECT_ID":"2023-153L","EPOCH":"2025-08-31T09:50:49.249536","MEAN_MOTION":15.02531752,"ECCENTRICITY":0.00012696,"INCLINATION":43.0038,"RA_OF_ASC_NODE":22.6516,"ARG_OF_PERICENTER":259.1025,"MEAN_ANOMALY":100.9674,"EPHEMERIS_TYPE":0,"CLASSIFICATION_TYPE":"U","NORAD_CAT_ID":58001,"ELEMENT_SET_NO":999,"REV_AT_EPOCH":10625,"BSTAR":0.0002092199,"MEAN_MOTION_DOT":2.623e-5,"MEAN_MOTION_DDOT":0},{"OBJECT_NAME":"STARLINK-30540","OBJECT_ID":"2023-153M","EPOCH":"2025-08-31T09:07:49.730880","MEAN_MOTION":15.02533246,"ECCENTRICITY":0.00014659,"INCLINATION":43.0056,"RA_OF_ASC_NODE":23.2716,"ARG_OF_PERICENTER":262.41,"MEAN_ANOMALY":97.6576,"EPHEMERIS_TYPE":0,"CLASSIFICATION_TYPE":"U","NORAD_CAT_ID":58002,"ELEMENT_SET_NO":999,"REV_AT_EPOCH":10614,"BSTAR":-1.487971e-6,"MEAN_MOTION_DOT":-2.24e-6,"MEAN_MOTION_DDOT":0},{"OBJECT_NAME":"STARLINK-30546","OBJECT_ID":"2023-153N","EPOCH":"2025-08-31T09:46:01.515936","MEAN_MOTION":15.02529353,"ECCENTRICITY":9.39e-5,"INCLINATION":43.0017,"RA_OF_ASC_NODE":22.6266,"ARG_OF_PERICENTER":278.2714,"MEAN_ANOMALY":81.8022,"EPHEMERIS_TYPE":0,"CLASSIFICATION_TYPE":"U","NORAD_CAT_ID":58003,"ELEMENT_SET_NO":999,"REV_AT_EPOCH":10625,"BSTAR":-2.8084131e-5,"MEAN_MOTION_DOT":-5.83e-6,"MEAN_MOTION_DDOT":0},{"OBJECT_NAME":"STARLINK-30539","OBJECT_ID":"2023-153P","EPOCH":"2025-08-31T11:16:56.817984","MEAN_MOTION":15.02537049,"ECCENTRICITY":0.00014904,"INCLINATION":43.0049,"RA_OF_ASC_NODE":22.2439,"ARG_OF_PERICENTER":264.2245,"MEAN_ANOMALY":95.8428,"EPHEMERIS_TYPE":0,"CLASSIFICATION_TYPE":"U","NORAD_CAT_ID":58004,"ELEMENT_SET_NO":999,"REV_AT_EPOCH":10626,"BSTAR":5.5639118e-5,"MEAN_MOTION_DOT":5.48e-6,"MEAN_MOTION_DDOT":0},{"OBJECT_NAME":"STARLINK-30530","OBJECT_ID":"2023-153Q","EPOCH":"2025-08-30T17:34:21.327456","MEAN_MOTION":15.0253201,"ECCENTRICITY":0.00012832,"INCLINATION":43.0045,"RA_OF_ASC_NODE":26.1636,"ARG_OF_PERICENTER":268.4959,"MEAN_ANOMALY":91.5737,"EPHEMERIS_TYPE":0,"CLASSIFICATION_TYPE":"U","NORAD_CAT_ID":58005,"ELEMENT_SET_NO":999,"REV_AT_EPOCH":10615,"BSTAR":4.5136324e-5,"MEAN_MOTION_DOT":4.06e-6,"MEAN_MOTION_DDOT":0},{"OBJECT_NAME":"STARLINK-30526","OBJECT_ID":"2023-153R","EPOCH":"2025-08-31T14:38:53.537568","MEAN_MOTION":15.02545174,"ECCENTRICITY":0.00012227,"INCLINATION":43.0028,"RA_OF_ASC_NODE":356.383,"ARG_OF_PERICENTER":274.1457,"MEAN_ANOMALY":85.9245,"EPHEMERIS_TYPE":0,"CLASSIFICATION_TYPE":"U","NORAD_CAT_ID":58006,"ELEMENT_SET_NO":999,"REV_AT_EPOCH":10657,"BSTAR":5.927484e-6,"MEAN_MOTION_DOT":-1.24e-6,"MEAN_MOTION_DDOT":0},{"OBJECT_NAME":"STARLINK-30527","OBJECT_ID":"2023-153S","EPOCH":"2025-08-31T13:43:38.852544","MEAN_MOTION":15.27579479,"ECCENTRICITY":5.853e-5,"INCLINATION":43.0006,"RA_OF_ASC_NODE":192.0647,"ARG_OF_PERICENTER":305.4696,"MEAN_ANOMALY":54.6101,"EPHEMERIS_TYPE":0,"CLASSIFICATION_TYPE":"U","NORAD_CAT_ID":58007,"ELEMENT_SET_NO":999,"REV_AT_EPOCH":10838,"BSTAR":2.5736382e-5,"MEAN_MOTION_DOT":4.46e-6,"MEAN_MOTION_DDOT":0},{"OBJECT_NAME":"STARLINK-30522","OBJECT_ID":"2023-153T","EPOCH":"2025-08-31T10:05:11.809248","MEAN_MOTION":15.02534101,"ECCENTRICITY":0.00014733,"INCLINATION":43.0045,"RA_OF_ASC_NODE":22.7214,"ARG_OF_PERICENTER":270.4904,"MEAN_ANOMALY":89.5769,"EPHEMERIS_TYPE":0,"CLASSIFICATION_TYPE":"U","NORAD_CAT_ID":58008,"ELEMENT_SET_NO":999,"REV_AT_EPOCH":10625,"BSTAR":7.8811777e-5,"MEAN_MOTION_DOT":8.61e-6,"MEAN_MOTION_DDOT":0},{"OBJECT_NAME":"STARLINK-30486","OBJECT_ID":"2023-153U","EPOCH":"2025-08-30T20:50:36.083616","MEAN_MOTION":15.0253646,"ECCENTRICITY":0.0001724,"INCLINATION":43.0043,"RA_OF_ASC_NODE":25.4616,"ARG_OF_PERICENTER":276.2201,"MEAN_ANOMALY":83.8445,"EPHEMERIS_TYPE":0,"CLASSIFICATION_TYPE":"U","NORAD_CAT_ID":58009,"ELEMENT_SET_NO":999,"REV_AT_EPOCH":10607,"BSTAR":-5.6991643e-5,"MEAN_MOTION_DOT":-9.74e-6,"MEAN_MOTION_DDOT":0},{"OBJECT_NAME":"STARLINK-30520","OBJECT_ID":"2023-153V","EPOCH":"2025-08-30T20:36:23.535936","MEAN_MOTION":15.02530055,"ECCENTRICITY":0.00012538,"INCLINATION":43.0041,"RA_OF_ASC_NODE":26.2349,"ARG_OF_PERICENTER":263.916,"MEAN_ANOMALY":96.1539,"EPHEMERIS_TYPE":0,"CLASSIFICATION_TYPE":"U","NORAD_CAT_ID":58010,"ELEMENT_SET_NO":999,"REV_AT_EPOCH":10606,"BSTAR":5.358106e-6,"MEAN_MOTION_DOT":-1.31e-6,"MEAN_MOTION_DDOT":0},{"OBJECT_NAME":"STARLINK-30497","OBJECT_ID":"2023-153W","EPOCH":"2025-08-31T02:54:29.565792","MEAN_MOTION":15.02542478,"ECCENTRICITY":0.00016099,"INCLINATION":43.0053,"RA_OF_ASC_NODE":24.764,"ARG_OF_PERICENTER":267.9631,"MEAN_ANOMALY":92.1027,"EPHEMERIS_TYPE":0,"CLASSIFICATION_TYPE":"U","NORAD_CAT_ID":58011,"ELEMENT_SET_NO":999,"REV_AT_EPOCH":10620,"BSTAR":0.00011390452,"MEAN_MOTION_DOT":1.335e-5,"MEAN_MOTION_DDOT":0},{"OBJECT_NAME":"STARLINK-30525","OBJECT_ID":"2023-153X","EPOCH":"2025-08-31T09:03:02.411136","MEAN_MOTION":15.0252943,"ECCENTRICITY":5.248e-5,"INCLINATION":43.0026,"RA_OF_ASC_NODE":23.2429,"ARG_OF_PERICENTER":273.759,"MEAN_ANOMALY":86.3192,"EPHEMERIS_TYPE":0,"CLASSIFICATION_TYPE":"U","NORAD_CAT_ID":58012,"ELEMENT_SET_NO":999,"REV_AT_EPOCH":10624,"BSTAR":5.8577255e-5,"MEAN_MOTION_DOT":5.88e-6,"MEAN_MOTION_DDOT":0},{"OBJECT_NAME":"STARLINK-30514","OBJECT_ID":"2023-156A","EPOCH":"2025-08-31T09:26:43.221984","MEAN_MOTION":15.30183041,"ECCENTRICITY":0.00012902,"INCLINATION":53.1594,"RA_OF_ASC_NODE":242.0801,"ARG_OF_PERICENTER":91.7948,"MEAN_ANOMALY":268.3201,"EPHEMERIS_TYPE":0,"CLASSIFICATION_TYPE":"U","NORAD_CAT_ID":58028,"ELEMENT_SET_NO":999,"REV_AT_EPOCH":10718,"BSTAR":2.819954e-5,"MEAN_MOTION_DOT":4.76e-6,"MEAN_MOTION_DDOT":0},{"OBJECT_NAME":"STARLINK-30518","OBJECT_ID":"2023-156B","EPOCH":"2025-08-31T06:32:17.132928","MEAN_MOTION":15.30188948,"ECCENTRICITY":0.00013312,"INCLINATION":53.1593,"RA_OF_ASC_NODE":242.753,"ARG_OF_PERICENTER":80.473,"MEAN_ANOMALY":279.6421,"EPHEMERIS_TYPE":0,"CLASSIFICATION_TYPE":"U","NORAD_CAT_ID":58029,"ELEMENT_SET_NO":999,"REV_AT_EPOCH":10716,"BSTAR":1.1633524e-5,"MEAN_MOTION_DOT":-1.5e-7,"MEAN_MOTION_DDOT":0},{"OBJECT_NAME":"STARLINK-30549","OBJECT_ID":"2023-156C","EPOCH":"2025-08-31T11:52:24.811104","MEAN_MOTION":15.3016978,"ECCENTRICITY":0.00011298,"INCLINATION":53.1584,"RA_OF_ASC_NODE":241.8206,"ARG_OF_PERICENTER":74.3867,"MEAN_ANOMALY":285.7258,"EPHEMERIS_TYPE":0,"CLASSIFICATION_TYPE":"U","NORAD_CAT_ID":58030,"ELEMENT_SET_NO":999,"REV_AT_EPOCH":10714,"BSTAR":2.0320939e-5,"MEAN_MOTION_DOT":2.42e-6,"MEAN_MOTION_DDOT":0},{"OBJECT_NAME":"STARLINK-30556","OBJECT_ID":"2023-156D","EPOCH":"2025-08-31T12:18:04.485024","MEAN_MOTION":15.30190547,"ECCENTRICITY":0.00012061,"INCLINATION":53.1587,"RA_OF_ASC_NODE":251.7503,"ARG_OF_PERICENTER":83.0855,"MEAN_ANOMALY":277.0283,"EPHEMERIS_TYPE":0,"CLASSIFICATION_TYPE":"U","NORAD_CAT_ID":58031,"ELEMENT_SET_NO":999,"REV_AT_EPOCH":10704,"BSTAR":1.7311186e-5,"MEAN_MOTION_DOT":1.53e-6,"MEAN_MOTION_DDOT":0}]
