STARLINK-30535          
1 58001U 23153L   25243.41029224  .00002623  00000+0  20922-3 0  9998
2 58001  43.0038  22.6516 0001269 259.1025 100.9674 15.02531752106250
STARLINK-30540          
1 58002U 23153M   25243.38043670 -.00000224  00000+0 -14880-5 0  9991
2 58002  43.0056  23.2716 0001465 262.4100  97.6576 15.02533246106140
STARLINK-30546          
1 58003U 23153N   25243.40696199 -.00000583  00000+0 -28084-4 0  9993
2 58003  43.0017  22.6266 0000939 278.2714  81.8022 15.02529353106259
STARLINK-30539          
1 58004U 23153P   25243.47010206  .00000548  00000+0  55639-4 0  9995
2 58004  43.0049  22.2439 0001490 264.2245  95.8428 15.02537049106267
STARLINK-30530          
1 58005U 23153Q   25242.73219129  .00000406  00000+0  45136-4 0  9993
2 58005  43.0045  26.1636 0001283 268.4959  91.5737 15.02532010106151
STARLINK-30526          
1 58006U 23153R   25243.61034187 -.00000124  00000+0  59275-5 0  9999
2 58006  43.0028 356.3830 0001222 274.1457  85.9245 15.02545174106579
STARLINK-30527          
1 58007U 23153S   25243.57197746  .00000446  00000+0  25736-4 0  9996
2 58007  43.0006 192.0647 0000585 305.4696  54.6101 15.27579479108388
STARLINK-30522          
1 58008U 23153T   25243.42027557  .00000861  00000+0  78812-4 0  9997
2 58008  43.0045  22.7214 0001473 270.4904  89.5769 15.02534101106258
STARLINK-30486          
1 58009U 23153U   25242.86847319 -.00000974  00000+0 -56992-4 0  9993
2 58009  43.0043  25.4616 0001724 276.2201  83.8445 15.02536460106074
STARLINK-30520          
1 58010U 23153V   25242.85860574 -.00000131  00000+0  53581-5 0  9998
2 58010  43.0041  26.2349 0001253 263.9160  96.1539 15.02530055106064
STARLINK-30497          
1 58011U 23153W   25243.12117553  .00001335  00000+0  11390-3 0  9998
2 58011  43.0053  24.7640 0001609 267.9631  92.1027 15.02542478106203
STARLINK-30525          
1 58012U 23153X   25243.37711124  .00000588  00000+0  58577-4 0  9998
2 58012  43.0026  23.2429 0000524 273.7590  86.3192 15.02529430106242
STARLINK-30514          
1 58028U 23156A   25243.39355581  .00000476  00000+0  28200-4 0  9997
2 58028  53.1594 242.0801 0001290  91.7948 268.3201 15.30183041107184
STARLINK-30518          
1 58029U 23156B   25243.27242052 -.00000015  00000+0  11634-4 0  9996
2 58029  53.1593 242.7530 0001331  80.4730 279.6421 15.30188948107168
STARLINK-30549          
1 58030U 23156C   25243.49473161  .00000242  00000+0  20321-4 0  9993
2 58030  53.1584 241.8206 0001129  74.3867 285.7258 15.30169780107145
STARLINK-30556          
1 58031U 23156D   25243.51255191  .00000153  00000+0  17311-4 0  9994
2 58031  53.1587 251.7503 0001206  83.0855 277.0283 15.30190547107045
